OBJECT_NAME,OBJECT_ID,EPOCH,MEAN_MOTION,ECCENTRICITY,INCLINATION,RA_OF_ASC_NODE,ARG_OF_PERICENTER,MEAN_ANOMALY,EPHEMERIS_TYPE,CLASSIFICATION_TYPE,NORAD_CAT_ID,ELEMENT_SET_NO,REV_AT_EPOCH,BSTAR,MEAN_MOTION_DOT,MEAN_MOTION_DDOT
EUTELSAT 53A,2014-064A,2026-06-04T03:32:49.449120,1.00271885,.000069,0.0132,283.7907,237.4697,197.5441,0,U,40277,999,4143,0,.11E-5,0
GSAT-16,2014-078A,2026-06-04T03:33:26.888832,1.00271053,.0007941,0.0593,95.2110,348.4490,277.3778,0,U,40332,999,4197,0,.97E-6,0
DIRECTV 14,2014-078B,2026-06-03T23:24:02.551392,1.00271680,.000024,0.0107,331.1802,175.9193,357.1086,0,U,40333,999,4191,0,-.113E-5,0
YAMAL 401,2014-082A,2026-06-04T04:27:21.708288,1.00272330,.0000025,0.0155,324.3022,128.6369,316.4880,0,U,40345,999,4178,0,0,0
ASTRA 2G,2014-089A,2026-06-04T03:25:42.632256,1.00269984,.0005273,0.0476,2.2911,56.0609,273.8804,0,U,40364,999,4183,0,.162E-5,0
FENGYUN 2G,2014-090A,2026-06-03T19:12:45.107712,1.00279146,.0003441,5.6052,72.9774,153.7233,53.2439,0,U,40367,999,4186,0,-.292E-5,0
MUOS-3,2015-002A,2026-06-04T01:30:44.794944,1.00272302,.0051531,4.4965,43.4682,178.7541,37.5385,0,U,40374,999,4145,0,-.118E-5,0
INMARSAT 5-F2,2015-005A,2026-06-03T20:11:20.921568,1.00272434,.00006553,0.0178,358.3891,188.3532,313.3768,0,U,40384,999,4086,0,-.273E-5,0
ABS-3A,2015-010A,2026-06-04T03:16:50.981088,1.00269814,.0001654,0.0122,117.2981,274.2488,267.2600,0,U,40424,999,4124,0,-.15E-6,0
EUTELSAT 115 WEST B,2015-010B,2026-06-04T01:02:15.946368,1.00273244,.0000357,0.0106,149.0780,132.9776,231.1044,0,U,40425,999,4126,0,-.13E-6,0
EXPRESS-AM7,2015-012A,2026-06-04T03:29:04.809120,1.00272126,.0003357,0.0161,5.3429,73.5350,265.9769,0,U,40505,999,4087,0,.163E-5,0
BEIDOU-3S IGSO-1S,2015-019A,2026-06-03T20:54:21.655872,1.00254002,.0038494,49.2213,295.6213,191.1761,171.6675,0,U,40549,999,4094,0,-.164E-5,0
THOR 7,2015-022A,2026-06-04T03:17:28.420800,1.00270787,.0002829,0.0090,323.1466,108.6355,229.5230,0,U,40613,999,4068,0,0,0
TURKMENALEM52E/MONACOSAT,2015-023A,2026-06-04T03:32:34.474272,1.00271866,.0003186,0.0402,77.7085,353.1797,286.8651,0,U,40617,999,4071,0,.116E-5,0
DIRECTV 15,2015-026A,2026-06-04T05:31:13.701216,1.00268514,.0000135,0.0179,3.0157,51.4831,178.0899,0,U,40663,999,4033,0,-.9E-6,0
SKY MEXICO-1,2015-026B,2026-06-04T02:55:17.325984,1.00271061,.0002376,0.0177,0.7070,90.7476,126.1368,0,U,40664,999,4032,0,-.222E-5,0
METEOSAT-11 (MSG-4),2015-034A,2026-06-04T03:20:20.647104,1.00276233,.0001632,3.1697,71.1815,3.3437,237.5044,0,U,40732,999,708,0,.74E-6,0
STAR ONE C4,2015-034B,2026-06-04T04:06:38.846016,1.00270965,.0002624,0.0212,343.8612,82.2126,178.2170,0,U,40733,999,3988,0,-.253E-5,0
WGS F7 (USA 263),2015-036A,2026-06-04T02:24:49.254912,1.00269379,.0000277,0.0022,354.2077,329.3862,140.1436,0,U,40746,999,3974,0,.29E-6,0
INTELSAT 34 (IS-34),2015-039A,2026-06-04T03:01:56.023104,1.00270050,.0000331,0.0086,339.4745,48.0566,215.0374,0,U,40874,999,3950,0,-.273E-5,0
EUTELSAT 8 WEST B,2015-039B,2026-06-04T03:15:28.613376,1.00272103,.0003844,0.0645,346.3188,83.6961,223.4483,0,U,40875,999,3952,0,-.53E-6,0
GSAT-6,2015-041A,2026-06-04T03:41:18.637152,1.00272115,.000336,1.8867,82.7488,346.4121,321.2903,0,U,40880,999,3946,0,-.149E-5,0
INMARSAT 5-F3,2015-042A,2026-06-03T19:35:39.343776,1.00273199,.00005307,0.0167,344.9315,90.7082,290.1786,0,U,40882,999,3943,0,.63E-6,0
MUOS-4,2015-044A,2026-06-04T03:39:03.852288,1.00272586,.005979,4.3053,42.1611,4.5912,335.6464,0,U,40887,999,3942,0,-.83E-6,0
TJS-1,2015-046A,2026-06-03T22:53:53.092608,1.00273520,.0005948,0.2890,85.0165,352.1126,313.7879,0,U,40892,999,3943,0,-.143E-5,0
EXPRESS-AM8,2015-048A,2026-06-04T03:13:43.780800,1.00271823,.0000225,0.0138,285.4569,145.1579,216.4022,0,U,40895,999,3921,0,-.99E-6,0
BEIDOU-3S IGSO-2S,2015-053A,2026-06-03T18:27:21.816000,1.00263058,.0064941,49.2433,258.9423,192.1078,173.8319,0,U,40938,999,3922,0,-.13E-5,0
SKY MUSTER 1 (NBN1A),2015-054A,2026-06-03T22:49:45.986016,1.00270439,.0001942,0.0238,336.6056,111.5239,286.9470,0,U,40940,999,3912,0,0,0
ARSAT 2,2015-054B,2026-06-04T02:54:39.887136,1.00271777,.0002278,0.0380,61.2687,1.5947,152.3901,0,U,40941,999,3917,0,-.213E-5,0
MORELOS 3,2015-056A,2026-06-04T03:36:38.766816,1.00271340,.0001819,3.1761,14.7208,3.0479,175.8951,0,U,40946,999,3915,0,-.32E-6,0
APSTAR-9,2015-059A,2026-06-03T22:50:08.450880,1.00272224,.000204,0.0169,332.0285,204.9060,200.0268,0,U,40982,999,3898,0,-.253E-5,0
TURKSAT 4B,2015-060A,2026-06-04T03:31:57.032832,1.00275414,.0002462,0.0178,335.0569,97.3354,283.2088,0,U,40984,999,3896,0,.126E-5,0
